BEIDOU-3S IGSO-1S       
1 40549U 15019A   26183.80025122 -.00000190  00000+0  00000+0 0  9997
2 40549  49.1798 295.2769 0076860 219.1125 144.2493  1.00680073 41232
NAVSTAR 74 (USA 262)    
1 40730U 15033A   26200.62991453 -.00000036  00000+0  00000+0 0  9993
2 40730  53.9579 265.7473 0115431  30.2916 330.4403  2.00554635 80649
BEIDOU-3S M2S           
1 40748U 15037A   26200.00343427 -.00000093  00000+0  00000+0 0  9993
2 40748  54.8406 300.9506 0009533 256.5664 103.3636  1.86231862 74717
BEIDOU-3S M1S           
1 40749U 15037B   26200.74381718 -.00000097  00000+0  00000+0 0  9994
2 40749  54.8363 300.9120 0002627  62.7440 297.3182  1.86254903 74731
GSAT0206 (GALILEO 10)   
1 40890U 15045B   26197.78640921  .00000048  00000+0  00000+0 0  9998
2 40890  54.9385 220.7865 0002263 327.7315  32.3020  1.70473544 67545
BEIDOU-3S IGSO-2S       
1 40938U 15053A   26200.82250711 -.00000107  00000+0  00000+0 0  9991
2 40938  49.1703 258.3907 0066178 193.5852 234.7482  1.00252447 39686
NAVSTAR 75 (USA 265)    
1 41019U 15062A   26200.68453010 -.00000087  00000+0  00000+0 0  9990
2 41019  56.9814  29.5602 0113042 230.8576 128.1660  2.00567075 78489
GSAT-15                 
1 41028U 15065A   26201.13786153 -.00000260  00000+0  00000+0 0  9994
2 41028   0.1047 263.6200 0003552 177.2764   0.1546  1.00272006 39126
GSAT0209 (GALILEO 12)   
1 41174U 15079A   26200.88772413 -.00000039  00000+0  00000+0 0  9990
2 41174  55.8457 100.3644 0004618 358.4074   1.6290  1.70473671 65332
GSAT0208 (GALILEO 11)   
1 41175U 15079B   26201.10806135 -.00000040  00000+0  00000+0 0  9998
2 41175  55.8443 100.3553 0004268 359.9028   0.1346  1.70473574 65757
IRNSS-1E                
1 41241U 16003A   26199.60095318 -.00000316  00000+0  00000+0 0  9990
2 41241  33.2996  59.2938 0019245 176.3205  28.9297  1.00276269 38390
NAVSTAR 76 (USA 266)    
1 41328U 16007A   26200.27711236 -.00000045  00000+0  00000+0 0  9999
2 41328  55.5436  88.1869 0096641 247.5846 111.4417  2.00575263 76484
COSMOS 2514 [GLONASS-M] 
1 41330U 16008A   26199.72561542 -.00000074  00000+0  00000+0 0  9995
2 41330  65.0007 311.9242 0012428 201.6103 158.3594  2.13102626 81291
BEIDOU-2 IGSO-6         
1 41434U 16021A   26177.11016981 -.00000145  00000+0  00000+0 0  9995
2 41434  60.2385  37.9495 0057558 231.0163 137.2672  1.00258926 37578
IRNSS-1G                
1 41469U 16027A   26201.00244493 -.00000340  00000+0  00000+0 0  9993
2 41469   5.2743  96.7153 0005931  12.9086 318.6857  1.00268539 37509
GSAT0211 (GALILEO 14)   
1 41549U 16030A   26200.64503168  .00000054  00000+0  00000+0 0  9993
2 41549  55.0892 220.8014 0003440 318.9496  41.0633  1.70473736 63220
GSAT0210 (GALILEO 13)   
1 41550U 16030B   26200.90227042  .00000055  00000+0  00000+0 0  9999
2 41550  55.0878 220.7925 0004710 246.5746 113.4149  1.70473957 63222
BEIDOU-2 G7             
1 41586U 16037A   26201.28377593 -.00000356  00000+0  00000+0 0  9999
2 41586   1.8005  69.5515 0006028   0.4999  80.7241  1.00271079  7228
EUTELSAT 117 WEST B     
1 41589U 16038B   26201.31426454 -.00000013  00000+0  00000+0 0  9998
2 41589   0.0059 160.2063 0000170  15.9679 118.0591  1.00270343 36998
GSAT0207 (GALILEO 15)   
1 41859U 16069A   26200.00776295 -.00000035  00000+0  00000+0 0  9992
2 41859  55.5168 100.2055 0004561 339.0572  20.9632  1.70473625 59941
GSAT0212 (GALILEO 16)   
1 41860U 16069B   26201.03433133 -.00000040  00000+0  00000+0 0  9995
2 41860  55.5153 100.1720 0004347  11.7607 348.2871  1.70473716 60214
GSAT0213 (GALILEO 17)   
1 41861U 16069C   26200.81489958 -.00000039  00000+0  00000+0 0  9995
2 41861  55.5171 100.1861 0003903 321.1021  38.9078  1.70474157 60072
GSAT0214 (GALILEO 18)   
1 41862U 16069D   26200.96118468 -.00000040  00000+0  00000+0 0  9999
2 41862  55.5157 100.1745 0003262 333.3186  26.7024  1.70473810 60209
SES-15                  
1 42709U 17026A   26201.13315921  .00000057  00000+0  00000+0 0  9994
2 42709   0.0276 320.0256 0000490 175.2151  81.4573  1.00270874  7769
QZS-2 (MICHIBIKI-2)     
1 42738U 17028A   26200.43631451 -.00000145  00000+0  00000+0 0  9998
2 42738  39.3809 242.6784 0756999 269.6501  84.4438  1.00275667  7951
QZS-3 (MICHIBIKI-3)     
1 42917U 17048A   26201.28706927 -.00000350  00000+0  00000+0 0  9992
2 42917   0.0597 207.8395 0002755 278.5962  42.0020  1.00270151 32592
COSMOS 2522 [GLONASS-M] 
1 42939U 17055A   26199.09397106  .00000060  00000+0  00000+0 0  9991
2 42939  64.0809 190.8323 0010876 240.6480 119.2397  2.13101776 68631
QZS-4 (MICHIBIKI-4)     
1 42965U 17062A   26200.72085770 -.00000359  00000+0  00000+0 0  9994
2 42965  40.0889 343.0703 0747038 268.6623  84.6148  1.00289629 32136
BEIDOU-3 M1             
1 43001U 17069A   26200.88735597 -.00000076  00000+0  00000+0 0  9995
2 43001  56.7214  62.0072 0009178 326.7417  33.2640  1.86231171 59212
BEIDOU-3 M2             
1 43002U 17069B   26200.82637238 -.00000075  00000+0  00000+0 0  9992
2 43002  56.7156  62.0460 0005934 145.8292 214.2725  1.86204093 59203
GSAT0215 (GALILEO 19)   
1 43055U 17079A   26200.27746981  .00000052  00000+0  00000+0 0  9990
2 43055  55.0670 220.6230 0003742 269.1143  90.8812  1.70474412 53533
